{"type": "FeatureCollection", "features": [ {"type": "Feature", "properties": {"norad_id": 34077, "name": "IRIDIUM 33 DEB", "group": "iridium-33-debris", "lat": 59.57881911261925, "lon": 56.91997762763852, "alt_km": 665.3330638671523, "timestamp": "2025-12-14T11:29:50.445381+00:00", "meta": {"OBJECT_NAME": "IRIDIUM 33 DEB", "OBJECT_ID": "1997-051CL", "EPOCH": "2025-12-13T10:41:04.689024", "MEAN_MOTION": 14.64855811, "ECCENTRICITY": 0.0010173, "INCLINATION": 86.3861, "RA_OF_ASC_NODE": 51.1965, "ARG_OF_PERICENTER": 37.4256, "MEAN_ANOMALY": 333.7971, "EPHEMERIS_TYPE": 0, "CLASSIFICATION_TYPE": "U", "NORAD_CAT_ID": 34077, "ELEMENT_SET_NO": 999, "REV_AT_EPOCH": 88343, "BSTAR": 0.0021086262, "MEAN_MOTION_DOT": 0.00011297, "MEAN_MOTION_DDOT": 0}, "tle": {"line1": "1 34077U 97051CL  25347.44519316  .00011297  00000+0  21086-2 0  9995", "line2": "2 34077  86.3861  51.1965 0010173  37.4256 333.7971 14.64855811883433"}}, "geometry": {"type": "Point", "coordinates": [56.91997762763852, 59.57881911261925]}}, {"type": "Feature", "properties": {"norad_id": 34079, "name": "IRIDIUM 33 DEB", "group": "iridium-33-debris", "lat": 11.336959331871896, "lon": -172.8561623572497, "alt_km": 623.2593425594841, "timestamp": "2025-12-14T11:29:50.445392+00:00", "meta": {"OBJECT_NAME": "IRIDIUM 33 DEB", "OBJECT_ID": "1997-051CN", "EPOCH": "2025-12-13T12:37:28.097760", "MEAN_MOTION": 14.83566457, "ECCENTRICITY": 0.00055381, "INCLINATION": 86.3782, "RA_OF_ASC_NODE": 8.3047, "ARG_OF_PERICENTER": 5.1607, "MEAN_ANOMALY": 116.6242, "EPHEMERIS_TYPE": 0, "CLASSIFICATION_TYPE": "U", "NORAD_CAT_ID": 34079, "ELEMENT_SET_NO": 999, "REV_AT_EPOCH": 88989, "BSTAR": 0.0027283259, "MEAN_MOTION_DOT": 0.00022548, "MEAN_MOTION_DDOT": 0}, "tle": {"line1": "1 34079U 97051CN  25347.52601965  .00022548  00000+0  27283-2 0  9994", "line2": "2 34079  86.3782   8.3047 0005538   5.1607 116.6242 14.83566457889894"}}, "geometry": {"type": "Point", "coordinates": [-172.8561623572497, 11.336959331871896]}}, {"type": "Feature", "properties": {"norad_id": 34088, "name": "IRIDIUM 33 DEB", "group": "iridium-33-debris", "lat": -50.84339244945096, "lon": 25.472698987873706, "alt_km": 603.3727540235968, "timestamp": "2025-12-14T11:29:50.445402+00:00", "meta": {"OBJECT_NAME": "IRIDIUM 33 DEB", "OBJECT_ID": "1997-051CX", "EPOCH": "2025-12-13T15:20:46.536000", "MEAN_MOTION": 14.91450641, "ECCENTRICITY": 0.00058418, "INCLINATION": 86.3853, "RA_OF_ASC_NODE": 30.3107, "ARG_OF_PERICENTER": 173.407, "MEAN_ANOMALY": 310.4314, "EPHEMERIS_TYPE": 0, "CLASSIFICATION_TYPE": "U", "NORAD_CAT_ID": 34088, "ELEMENT_SET_NO": 999, "REV_AT_EPOCH": 88755, "BSTAR": 0.0025953124, "MEAN_MOTION_DOT": 0.00026038, "MEAN_MOTION_DDOT": 0}, "tle": {"line1": "1 34088U 97051CX  25347.63942750  .00026038  00000+0  25953-2 0  9996", "line2": "2 34088  86.3853  30.3107 0005841 173.4070 310.4314 14.91450641887556"}}, "geometry": {"type": "Point", "coordinates": [25.472698987873706, -50.84339244945096]}}, {"type": "Feature", "properties": {"norad_id": 34091, "name": "IRIDIUM 33 DEB", "group": "iridium-33-debris", "lat": 74.74899571774442, "lon": 79.60956644751577, "alt_km": 635.8219748640058, "timestamp": "2025-12-14T11:29:50.445413+00:00", "meta": {"OBJECT_NAME": "IRIDIUM 33 DEB", "OBJECT_ID": "1997-051DA", "EPOCH": "2025-12-13T15:42:43.747200", "MEAN_MOTION": 14.81936713, "ECCENTRICITY": 0.00333516, "INCLINATION": 86.3414, "RA_OF_ASC_NODE": 66.4146, "ARG_OF_PERICENTER": 289.9347, "MEAN_ANOMALY": 69.8283, "EPHEMERIS_TYPE": 0, "CLASSIFICATION_TYPE": "U", "NORAD_CAT_ID": 34091, "ELEMENT_SET_NO": 999, "REV_AT_EPOCH": 87880, "BSTAR": 0.0045533762, "MEAN_MOTION_DOT": 0.00036581, "MEAN_MOTION_DDOT": 0}, "tle": {"line1": "1 34091U 97051DA  25347.65467300  .00036581  00000+0  45534-2 0  9996", "line2": "2 34091  86.3414  66.4146 0033351 289.9347  69.8283 14.81936713878809"}}, "geometry": {"type": "Point", "coordinates": [79.60956644751577, 74.74899571774442]}}, {"type": "Feature", "properties": {"norad_id": 34097, "name": "IRIDIUM 33 DEB", "group": "iridium-33-debris", "lat": 28.98452424676362, "lon": 2.750284965738203, "alt_km": 724.5697843258731, "timestamp": "2025-12-14T11:29:50.445423+00:00", "meta": {"OBJECT_NAME": "IRIDIUM 33 DEB", "OBJECT_ID": "1997-051DG", "EPOCH": "2025-12-13T11:55:54.924672", "MEAN_MOTION": 14.34788744, "ECCENTRICITY": 0.00825242, "INCLINATION": 86.201, "RA_OF_ASC_NODE": 1.074, "ARG_OF_PERICENTER": 359.7109, "MEAN_ANOMALY": 0.4024, "EPHEMERIS_TYPE": 0, "CLASSIFICATION_TYPE": "U", "NORAD_CAT_ID": 34097, "ELEMENT_SET_NO": 999, "REV_AT_EPOCH": 87130, "BSTAR": 0.0022882091, "MEAN_MOTION_DOT": 6.762e-05, "MEAN_MOTION_DDOT": 0}, "tle": {"line1": "1 34097U 97051DG  25347.49716348  .00006762  00000+0  22882-2 0  9992", "line2": "2 34097  86.2010   1.0740 0082524 359.7109   0.4024 14.34788744871308"}}, "geometry": {"type": "Point", "coordinates": [2.750284965738203, 28.98452424676362]}}, {"type": "Feature", "properties": {"norad_id": 34145, "name": "IRIDIUM 33 DEB", "group": "iridium-33-debris", "lat": -15.824300182527896, "lon": -29.32338519040656, "alt_km": 765.0545688241291, "timestamp": "2025-12-14T11:29:50.445433+00:00", "meta": {"OBJECT_NAME": "IRIDIUM 33 DEB", "OBJECT_ID": "1997-051DY", "EPOCH": "2025-12-13T03:56:04.562016", "MEAN_MOTION": 14.42295665, "ECCENTRICITY": 0.00557423, "INCLINATION": 86.2121, "RA_OF_ASC_NODE": 332.338, "ARG_OF_PERICENTER": 92.4586, "MEAN_ANOMALY": 268.2998, "EPHEMERIS_TYPE": 0, "CLASSIFICATION_TYPE": "U", "NORAD_CAT_ID": 34145, "ELEMENT_SET_NO": 999, "REV_AT_EPOCH": 87644, "BSTAR": 0.0018432555, "MEAN_MOTION_DOT": 6.217e-05, "MEAN_MOTION_DDOT": 0}, "tle": {"line1": "1 34145U 97051DY  25347.16394169  .00006217  00000+0  18433-2 0  9995", "line2": "2 34145  86.2121 332.3380 0055742  92.4586 268.2998 14.42295665876445"}}, "geometry": {"type": "Point", "coordinates": [-29.32338519040656, -15.824300182527896]}}, {"type": "Feature", "properties": {"norad_id": 34146, "name": "IRIDIUM 33 DEB", "group": "iridium-33-debris", "lat": 24.690340711232047, "lon": -9.255120546225157, "alt_km": 745.9230770881313, "timestamp": "2025-12-14T11:29:50.445443+00:00", "meta": {"OBJECT_NAME": "IRIDIUM 33 DEB", "OBJECT_ID": "1997-051DZ", "EPOCH": "2025-12-13T11:13:31.173888", "MEAN_MOTION": 14.49059499, "ECCENTRICITY": 0.00255486, "INCLINATION": 86.284, "RA_OF_ASC_NODE": 349.4792, "ARG_OF_PERICENTER": 219.0483, "MEAN_ANOMALY": 293.3614, "EPHEMERIS_TYPE": 0, "CLASSIFICATION_TYPE": "U", "NORAD_CAT_ID": 34146, "ELEMENT_SET_NO": 999, "REV_AT_EPOCH": 88117, "BSTAR": 0.0015372698, "MEAN_MOTION_DOT": 5.879e-05, "MEAN_MOTION_DDOT": 0}, "tle": {"line1": "1 34146U 97051DZ  25347.46772192  .00005879  00000+0  15373-2 0  9998", "line2": "2 34146  86.2840 349.4792 0025548 219.0483 293.3614 14.49059499881174"}}, "geometry": {"type": "Point", "coordinates": [-9.255120546225157, 24.690340711232047]}}, {"type": "Feature", "properties": {"norad_id": 34159, "name": "IRIDIUM 33 DEB", "group": "iridium-33-debris", "lat": 33.69660193604724, "lon": 49.938449158417164, "alt_km": 768.3253819892634, "timestamp": "2025-12-14T11:29:50.445454+00:00", "meta": {"OBJECT_NAME": "IRIDIUM 33 DEB", "OBJECT_ID": "1997-051EN", "EPOCH": "2025-12-13T15:18:25.992576", "MEAN_MOTION": 14.38498063, "ECCENTRICITY": 0.0026, "INCLINATION": 86.3513, "RA_OF_ASC_NODE": 47.8583, "ARG_OF_PERICENTER": 284.6423, "MEAN_ANOMALY": 75.1892, "EPHEMERIS_TYPE": 0, "CLASSIFICATION_TYPE": "U", "NORAD_CAT_ID": 34159, "ELEMENT_SET_NO": 999, "REV_AT_EPOCH": 87972, "BSTAR": 0.00058950971, "MEAN_MOTION_DOT": 1.826e-05, "MEAN_MOTION_DDOT": 0}, "tle": {"line1": "1 34159U 97051EN  25347.63780084  .00001826  00000+0  58951-3 0  9998", "line2": "2 34159  86.3513  47.8583 0026000 284.6423  75.1892 14.38498063879723"}}, "geometry": {"type": "Point", "coordinates": [49.938449158417164, 33.69660193604724]}}, {"type": "Feature", "properties": {"norad_id": 34350, "name": "IRIDIUM 33 DEB", "group": "iridium-33-debris", "lat": 74.19374425020187, "lon": 168.93926590532553, "alt_km": 718.8786768974851, "timestamp": "2025-12-14T11:29:50.445464+00:00", "meta": {"OBJECT_NAME": "IRIDIUM 33 DEB", "OBJECT_ID": "1997-051ES", "EPOCH": "2025-12-13T14:00:17.029152", "MEAN_MOTION": 14.45389199, "ECCENTRICITY": 0.00228878, "INCLINATION": 86.3275, "RA_OF_ASC_NODE": 2.4411, "ARG_OF_PERICENTER": 132.5486, "MEAN_ANOMALY": 356.1035, "EPHEMERIS_TYPE": 0, "CLASSIFICATION_TYPE": "U", "NORAD_CAT_ID": 34350, "ELEMENT_SET_NO": 999, "REV_AT_EPOCH": 88305, "BSTAR": 0.00044409912, "MEAN_MOTION_DOT": 1.586e-05, "MEAN_MOTION_DDOT": 0}, "tle": {"line1": "1 34350U 97051ES  25347.58353043  .00001586  00000+0  44410-3 0  9994", "line2": "2 34350  86.3275   2.4411 0022887 132.5486 356.1035 14.45389199883056"}}, "geometry": {"type": "Point", "coordinates": [168.93926590532553, 74.19374425020187]}}, {"type": "Feature", "properties": {"norad_id": 34366, "name": "IRIDIUM 33 DEB", "group": "iridium-33-debris", "lat": 52.121484242570304, "lon": -136.12425944348797, "alt_km": 691.6820628651867, "timestamp": "2025-12-14T11:29:50.445474+00:00", "meta": {"OBJECT_NAME": "IRIDIUM 33 DEB", "OBJECT_ID": "1997-051FJ", "EPOCH": "2025-12-13T15:39:41.959008", "MEAN_MOTION": 14.54070514, "ECCENTRICITY": 0.0022578, "INCLINATION": 86.3699, "RA_OF_ASC_NODE": 48.9163, "ARG_OF_PERICENTER": 136.7166, "MEAN_ANOMALY": 347.3709, "EPHEMERIS_TYPE": 0, "CLASSIFICATION_TYPE": "U", "NORAD_CAT_ID": 34366, "ELEMENT_SET_NO": 999, "REV_AT_EPOCH": 88195, "BSTAR": 0.0012496588, "MEAN_MOTION_DOT": 5.312e-05, "MEAN_MOTION_DDOT": 0}, "tle": {"line1": "1 34366U 97051FJ  25347.65256897  .00005312  00000+0  12497-2 0  9998", "line2": "2 34366  86.3699  48.9163 0022578 136.7166 347.3709 14.54070514881955"}}, "geometry": {"type": "Point", "coordinates": [-136.12425944348797, 52.121484242570304]}}]}